H1 CPF  1  DGF 2022 01 26 16  5261 larets     NONE      
H2   304206 5557    27944 2022 01 25 00 00 00 2022 02 01 00 00 00    30 1 1  0 0 0
H5  0.0650
H9
10 0 59608  79200.000000  0       -126177.607      -2186260.369       6707623.757
10 0 59608  79230.000000  0       -245576.539      -2368759.786       6642446.081
10 0 59608  79260.000000  0       -365519.130      -2548339.561       6570500.087
10 0 59608  79290.000000  0       -485870.925      -2724816.102       6491859.400
10 0 59608  79320.000000  0       -606496.266      -2898009.545       6406604.411
10 0 59608  79350.000000  0       -727258.446      -3067743.937       6314822.196
10 0 59608  79380.000000  0       -848019.857      -3233847.415       6216606.429
10 0 59608  79410.000000  0       -968642.149      -3396152.381       6112057.297
10 0 59608  79440.000000  0      -1088986.381      -3554495.672       6001281.399
10 0 59608  79470.000000  0      -1208913.183      -3708718.723       5884391.643
10 0 59608  79500.000000  0      -1328282.919      -3858667.732       5761507.140
10 0 59608  79530.000000  0      -1446955.844      -4004193.814       5632753.089
10 0 59608  79560.000000  0      -1564792.272      -4145153.155       5498260.651
10 0 59608  79590.000000  0      -1681652.740      -4281407.157       5358166.822
10 0 59608  79620.000000  0      -1797398.169      -4412822.579       5212614.299
10 0 59608  79650.000000  0      -1911890.033      -4539271.675       5061751.335
10 0 59608  79680.000000  0      -2024990.525      -4660632.319       4905731.595
10 0 59608  79710.000000  0      -2136562.722      -4776788.131       4744714.001
10 0 59608  79740.000000  0      -2246470.752      -4887628.591       4578862.575
10 0 59608  79770.000000  0      -2354579.960      -4993049.154       4408346.265
10 0 59608  79800.000000  0      -2460757.068      -5092951.349       4233338.782
10 0 59608  79830.000000  0      -2564870.342      -5187242.873       4054018.415
10 0 59608  79860.000000  0      -2666789.751      -5275837.684       3870567.857
10 0 59608  79890.000000  0      -2766387.128      -5358656.076       3683174.010
10 0 59608  79920.000000  0      -2863536.332      -5435624.757       3492027.806
10 0 59608  79950.000000  0      -2958113.399      -5506676.915       3297324.002
10 0 59608  79980.000000  0      -3049996.702      -5571752.278       3099260.991
10 0 59608  80010.000000  0      -3139067.105      -5630797.165       2898040.594
10 0 59608  80040.000000  0      -3225208.110      -5683764.538       2693867.853
10 0 59608  80070.000000  0      -3308306.010      -5730614.036       2486950.825
10 0 59608  80100.000000  0      -3388250.033      -5771312.004       2277500.362
10 0 59608  80130.000000  0      -3464932.489      -5805831.521       2065729.898
10 0 59608  80160.000000  0      -3538248.904      -5834152.411       1851855.230
10 0 59608  80190.000000  0      -3608098.165      -5856261.252       1636094.288
10 0 59608  80220.000000  0      -3674382.645      -5872151.378       1418666.917
10 0 59608  80250.000000  0      -3737008.338      -5881822.865       1199794.644
10 0 59608  80280.000000  0      -3795884.984      -5885282.518        979700.453
10 0 59608  80310.000000  0      -3850926.188      -5882543.851        758608.550
10 0 59608  80340.000000  0      -3902049.540      -5873627.049        536744.135
10 0 59608  80370.000000  0      -3949176.728      -5858558.937        314333.167
10 0 59608  80400.000000  0      -3992233.648      -5837372.932         91602.125
10 0 59608  80430.000000  0      -4031150.503      -5810108.983       -131222.224
10 0 59608  80460.000000  0      -4065861.907      -5776813.519       -353913.063
10 0 59608  80490.000000  0      -4096306.975      -5737539.371       -576243.761
10 0 59608  80520.000000  0      -4122429.411      -5692345.698       -797988.107
10 0 59608  80550.000000  0      -4144177.594      -5641297.906      -1018920.545
10 0 59608  80580.000000  0      -4161504.651      -5584467.552      -1238816.410
10 0 59608  80610.000000  0      -4174368.532      -5521932.247      -1457452.158
10 0 59608  80640.000000  0      -4182732.075      -5453775.551      -1674605.596
10 0 59608  80670.000000  0      -4186563.065      -5380086.864      -1890056.113
10 0 59608  80700.000000  0      -4185834.292      -5300961.304      -2103584.906
10 0 59608  80730.000000  0      -4180523.595      -5216499.586      -2314975.203
10 0 59608  80760.000000  0      -4170613.907      -5126807.887      -2524012.485
10 0 59608  80790.000000  0      -4156093.289      -5031997.715      -2730484.705
10 0 59608  80820.000000  0      -4136954.963      -4932185.766      -2934182.502
10 0 59608  80850.000000  0      -4113197.335      -4827493.776      -3134899.410
10 0 59608  80880.000000  0      -4084824.010      -4718048.372      -3332432.072
10 0 59608  80910.000000  0      -4051843.811      -4603980.914      -3526580.437
10 0 59608  80940.000000  0      -4014270.780      -4485427.335      -3717147.964
10 0 59608  80970.000000  0      -3972124.179      -4362527.975      -3903941.815
10 0 59608  81000.000000  0      -3925428.486      -4235427.413      -4086773.046
10 0 59608  81030.000000  0      -3874213.388      -4104274.297      -4265456.797
10 0 59608  81060.000000  0      -3818513.755      -3969221.163      -4439812.474
10 0 59608  81090.000000  0      -3758369.624      -3830424.257      -4609663.926
10 0 59608  81120.000000  0      -3693826.169      -3688043.351      -4774839.615
10 0 59608  81150.000000  0      -3624933.663      -3542241.553      -4935172.787
10 0 59608  81180.000000  0      -3551747.440      -3393185.125      -5090501.631
10 0 59608  81210.000000  0      -3474327.850      -3241043.285      -5240669.434
10 0 59608  81240.000000  0      -3392740.205      -3085988.015      -5385524.734
10 0 59608  81270.000000  0      -3307054.725      -2928193.871      -5524921.463
10 0 59608  81300.000000  0      -3217346.477      -2767837.779      -5658719.087
10 0 59608  81330.000000  0      -3123695.302      -2605098.841      -5786782.742
10 0 59608  81360.000000  0      -3026185.753      -2440158.137      -5908983.360
10 0 59608  81390.000000  0      -2924907.009      -2273198.520      -6025197.795
10 0 59608  81420.000000  0      -2819952.793      -2104404.414      -6135308.943
10 0 59608  81450.000000  0      -2711421.286      -1933961.611      -6239205.846
10 0 59608  81480.000000  0      -2599415.029      -1762057.070      -6336783.798
10 0 59608  81510.000000  0      -2484040.830      -1588878.709      -6427944.442
10 0 59608  81540.000000  0      -2365409.659      -1414615.208      -6512595.865
10 0 59608  81570.000000  0      -2243636.539      -1239455.802      -6590652.675
10 0 59608  81600.000000  0      -2118840.439      -1063590.077      -6662036.090
10 0 59608  81630.000000  0      -1991144.158       -887207.773      -6726674.000
10 0 59608  81660.000000  0      -1860674.203       -710498.579      -6784501.038
10 0 59608  81690.000000  0      -1727560.668       -533651.938      -6835458.639
10 0 59608  81720.000000  0      -1591937.109       -356856.845      -6879495.094
10 0 59608  81750.000000  0      -1453940.415       -180301.655      -6916565.600
10 0 59608  81780.000000  0      -1313710.671         -4173.885      -6946632.303
10 0 59608  81810.000000  0      -1171391.018        171339.979      -6969664.340
10 0 59608  81840.000000  0      -1027127.514        346054.675      -6985637.871
10 0 59608  81870.000000  0       -881068.982        519786.361      -6994536.098
10 0 59608  81900.000000  0       -733366.864        692352.802      -6996349.289
10 0 59608  81930.000000  0       -584175.068        863573.560      -6991074.783
10 0 59608  81960.000000  0       -433649.809       1033270.174      -6978716.992
10 0 59608  81990.000000  0       -281949.461       1201266.343      -6959287.406
10 0 59608  82020.000000  0       -129234.387       1367388.100      -6932804.587
10 0 59608  82050.000000  0         24333.215       1531463.995      -6899294.165
10 0 59608  82080.000000  0        178589.490       1693325.270      -6858788.816
10 0 59608  82110.000000  0        333369.094       1852806.037      -6811328.243
10 0 59608  82140.000000  0        488505.375       2009743.444      -6756959.136
10 0 59608  82170.000000  0        643830.544       2163977.840      -6695735.137
10 0 59608  82200.000000  0        799175.860       2315352.941      -6627716.794
10 0 59608  82230.000000  0        954371.805       2463715.981      -6552971.504
10 0 59608  82260.000000  0       1109248.262       2608917.877      -6471573.460
10 0 59608  82290.000000  0       1263634.704       2750813.377      -6383603.588
10 0 59608  82320.000000  0       1417360.379       2889261.211      -6289149.472
10 0 59608  82350.000000  0       1570254.492       3024124.230      -6188305.275
10 0 59608  82380.000000  0       1722146.403       3155269.548      -6081171.660
10 0 59608  82410.000000  0       1872865.808       3282568.672      -5967855.694
10 0 59608  82440.000000  0       2022242.933       3405897.635      -5848470.755
10 0 59608  82470.000000  0       2170108.724       3525137.119      -5723136.430
10 0 59608  82500.000000  0       2316295.037       3640172.579      -5591978.406
10 0 59608  82530.000000  0       2460634.831       3750894.357      -5455128.351
10 0 59608  82560.000000  0       2602962.358       3857197.798      -5312723.798
10 0 59608  82590.000000  0       2743113.358       3958983.352      -5164908.012
10 0 59608  82620.000000  0       2880925.252       4056156.679      -5011829.855
10 0 59608  82650.000000  0       3016237.329       4148628.740      -4853643.648
10 0 59608  82680.000000  0       3148890.940       4236315.894      -4690509.019
10 0 59608  82710.000000  0       3278729.689       4319139.972      -4522590.752
10 0 59608  82740.000000  0       3405599.615       4397028.361      -4350058.623
10 0 59608  82770.000000  0       3529349.382       4469914.072      -4173087.242
99
